OBJECT_NAME,OBJECT_ID,EPOCH,MEAN_MOTION,ECCENTRICITY,INCLINATION,RA_OF_ASC_NODE,ARG_OF_PERICENTER,MEAN_ANOMALY,EPHEMERIS_TYPE,CLASSIFICATION_TYPE,NORAD_CAT_ID,ELEMENT_SET_NO,REV_AT_EPOCH,BSTAR,MEAN_MOTION_DOT,MEAN_MOTION_DDOT
IRIDIUM 135,2017-083A,2026-07-11T18:42:59.255136,14.34217775,.00021843,86.3983,311.7350,94.2409,265.9037,0,U,43070,999,44767,.3653264E-4,.122E-5,0
IRIDIUM 138,2017-083B,2026-07-11T17:39:03.193632,14.34217766,.00020705,86.3997,311.4527,91.5923,268.5510,0,U,43071,999,44765,.39227173E-4,.13E-5,0
IRIDIUM 116,2017-083C,2026-07-10T17:26:50.591616,14.34220153,.00024044,86.3983,312.1606,99.2562,260.8905,0,U,43072,999,44754,.45419915E-4,.147E-5,0
IRIDIUM 130,2017-083D,2026-07-11T17:48:11.372256,14.34217048,.00021847,86.3992,312.0143,100.6066,259.5376,0,U,43073,999,44763,.38194012E-4,.127E-5,0
IRIDIUM 151,2017-083E,2026-07-11T18:52:07.237632,14.34217357,.00022201,86.3986,311.7762,95.4179,264.7270,0,U,43074,999,44766,.43820242E-4,.142E-5,0
IRIDIUM 134,2017-083F,2026-07-11T18:06:27.218016,14.34217849,.00021922,86.3986,311.7979,95.6143,264.5303,0,U,43075,999,44762,.3639569E-4,.122E-5,0
IRIDIUM 137,2017-083G,2026-07-11T18:24:43.344576,14.34217738,.00026584,86.3988,311.8859,95.1008,265.0491,0,U,43076,999,44769,.36367581E-4,.122E-5,0
IRIDIUM 141,2017-083H,2026-07-11T18:15:35.120160,14.34217346,.00021511,86.3985,311.7178,93.2841,266.8601,0,U,43077,999,44769,.35512749E-4,.119E-5,0
IRIDIUM 153,2017-083J,2026-07-11T18:47:11.406624,14.34217605,.00021029,86.3961,280.1884,94.0933,266.0504,0,U,43078,999,44880,.14043507E-4,.59E-6,0
IRIDIUM 131,2017-083K,2026-07-11T17:57:19.289952,14.34217426,.00022398,86.3990,311.9105,92.9397,267.2055,0,U,43079,999,44762,.5102875E-5,.34E-6,0
IRIDIUM 144,2018-030A,2026-07-11T18:56:19.434912,14.34217726,.00023617,86.3958,280.1143,98.7298,261.4165,0,U,43249,999,43366,.14463612E-4,.6E-6,0
IRIDIUM 149,2018-030B,2026-07-11T17:24:59.459616,14.34217703,.00022473,86.3959,280.1076,93.5631,266.5822,0,U,43250,999,43367,.37384887E-4,.124E-5,0
IRIDIUM 157,2018-030C,2026-07-11T17:52:23.646432,14.34217106,.00022527,86.3962,280.1535,94.2704,265.8749,0,U,43251,999,43365,.33990621E-4,.115E-5,0
IRIDIUM 140,2018-030D,2026-07-11T18:19:47.571456,14.34216721,.00022166,86.3961,280.1580,95.1539,264.9910,0,U,43252,999,43371,.39616452E-4,.131E-5,0
IRIDIUM 145,2018-030E,2026-07-11T18:01:31.266048,14.34216915,.00024464,86.3959,280.1352,100.8525,259.2946,0,U,43253,999,43364,.41385087E-4,.136E-5,0
IRIDIUM 146,2018-030F,2026-07-11T17:34:07.372128,14.34217029,.00022393,86.3959,280.1556,97.4767,262.6683,0,U,43254,999,43365,-.9120937E-5,-.6E-7,0
IRIDIUM 148,2018-030G,2026-07-11T18:28:55.684416,14.34217223,.00023427,86.3962,280.1830,94.4496,265.6967,0,U,43255,999,43369,.45482597E-4,.147E-5,0
IRIDIUM 142,2018-030H,2026-07-11T17:43:15.473856,14.34217877,.00023919,86.3956,280.0846,98.2818,261.8650,0,U,43256,999,43365,.40784349E-4,.134E-5,0
IRIDIUM 150,2018-030J,2026-07-10T04:07:18.893280,14.34219143,.00022151,86.3963,280.8566,95.9860,264.1588,0,U,43257,999,43345,-.94435944E-4,-.245E-5,0
IRIDIUM 143,2018-030K,2026-07-11T18:10:39.454176,14.34217364,.00023041,86.3961,280.2872,96.1065,264.0394,0,U,43258,999,43361,.24944718E-4,.9E-6,0
IRIDIUM 161,2018-047C,2026-07-11T03:46:43.203072,14.43284936,.00023067,86.4467,78.4474,78.8180,281.3280,0,U,43478,999,42859,.45078032E-4,.172E-5,0
IRIDIUM 152,2018-047D,2026-07-11T17:31:22.670400,14.34219297,.00021438,86.3940,78.0692,82.5322,277.6118,0,U,43479,999,42600,.42316087E-4,.138E-5,0
IRIDIUM 147,2018-047E,2026-07-11T17:40:30.136224,14.34217152,.00022743,86.3941,78.0721,88.2072,271.9384,0,U,43480,999,42600,.44537887E-4,.145E-5,0
IRIDIUM 110,2018-047F,2026-07-11T17:49:38.332128,14.34217614,.00021844,86.3945,78.1621,76.5323,283.6116,0,U,43481,999,42599,.39654286E-4,.131E-5,0
IRIDIUM 162,2018-047G,2026-07-10T02:40:06.655296,14.43283456,.00021871,86.4467,78.7759,84.2783,275.8667,0,U,43482,999,42843,.50126108E-4,.189E-5,0
IRIDIUM 160,2018-061A,2026-07-11T16:31:38.236800,14.34217808,.00024008,86.3942,46.5492,82.4772,277.6696,0,U,43569,999,41688,.31199834E-4,.107E-5,0
IRIDIUM 166,2018-061B,2026-07-11T12:06:46.347840,14.34217869,.00022602,86.3940,46.5761,89.6407,270.5047,0,U,43570,999,41688,.3931712E-5,.31E-6,0
IRIDIUM 158,2018-061C,2026-07-11T16:22:30.470304,14.34217211,.00020676,86.3940,46.5116,86.2122,273.9310,0,U,43571,999,41687,.7632949E-5,.41E-6,0
IRIDIUM 165,2018-061D,2026-07-11T15:18:34.411392,14.34217370,.00022582,86.3941,46.5772,90.4212,269.7243,0,U,43572,999,41689,.44895156E-4,.146E-5,0
IRIDIUM 155,2018-061E,2026-07-11T16:04:14.409408,14.34216791,.00019437,86.3934,46.4314,87.8825,272.2593,0,U,43573,999,41686,.970984E-6,.22E-6,0
