IRIDIUM 135             
1 43070U 17083A   26192.77985249  .00000122  00000+0  36533-4 0  9992
2 43070  86.3983 311.7350 0002184  94.2409 265.9037 14.34217775447677
IRIDIUM 138             
1 43071U 17083B   26192.73545363  .00000130  00000+0  39227-4 0  9990
2 43071  86.3997 311.4527 0002070  91.5923 268.5510 14.34217766447654
IRIDIUM 116             
1 43072U 17083C   26191.72697444  .00000147  00000+0  45420-4 0  9997
2 43072  86.3983 312.1606 0002404  99.2562 260.8905 14.34220153447546
IRIDIUM 130             
1 43073U 17083D   26192.74179829  .00000127  00000+0  38194-4 0  9991
2 43073  86.3992 312.0143 0002184 100.6066 259.5376 14.34217048447639
IRIDIUM 151             
1 43074U 17083E   26192.78619488  .00000142  00000+0  43820-4 0  9995
2 43074  86.3986 311.7762 0002220  95.4179 264.7270 14.34217357447660
IRIDIUM 134             
1 43075U 17083F   26192.75448169  .00000122  00000+0  36396-4 0  9997
2 43075  86.3986 311.7979 0002192  95.6143 264.5303 14.34217849447629
IRIDIUM 137             
1 43076U 17083G   26192.76716834  .00000122  00000+0  36368-4 0  9995
2 43076  86.3988 311.8859 0002658  95.1008 265.0491 14.34217738447690
IRIDIUM 141             
1 43077U 17083H   26192.76082315  .00000119  00000+0  35513-4 0  9993
2 43077  86.3985 311.7178 0002151  93.2841 266.8601 14.34217346447690
IRIDIUM 153             
1 43078U 17083J   26192.78277091  .00000059  00000+0  14044-4 0  9992
2 43078  86.3961 280.1884 0002102  94.0933 266.0504 14.34217605448801
IRIDIUM 131             
1 43079U 17083K   26192.74813993  .00000034  00000+0  51029-5 0  9994
2 43079  86.3990 311.9105 0002239  92.9397 267.2055 14.34217426447629
IRIDIUM 144             
1 43249U 18030A   26192.78911383  .00000060  00000+0  14464-4 0  9992
2 43249  86.3958 280.1143 0002361  98.7298 261.4165 14.34217726433661
IRIDIUM 149             
1 43250U 18030B   26192.72568819  .00000124  00000+0  37385-4 0  9998
2 43250  86.3959 280.1076 0002247  93.5631 266.5822 14.34217703433678
IRIDIUM 157             
1 43251U 18030C   26192.74471813  .00000115  00000+0  33991-4 0  9997
2 43251  86.3962 280.1535 0002252  94.2704 265.8749 14.34217106433653
IRIDIUM 140             
1 43252U 18030D   26192.76374504  .00000131  00000+0  39616-4 0  9997
2 43252  86.3961 280.1580 0002216  95.1539 264.9910 14.34216721433718
IRIDIUM 145             
1 43253U 18030E   26192.75105632  .00000136  00000+0  41385-4 0  9992
2 43253  86.3959 280.1352 0002446 100.8525 259.2946 14.34216915433640
IRIDIUM 146             
1 43254U 18030F   26192.73202977 -.00000006  00000+0 -91209-5 0  9990
2 43254  86.3959 280.1556 0002239  97.4767 262.6683 14.34217029433650
IRIDIUM 148             
1 43255U 18030G   26192.77008894  .00000147  00000+0  45483-4 0  9993
2 43255  86.3962 280.1830 0002342  94.4496 265.6967 14.34217223433699
IRIDIUM 142             
1 43256U 18030H   26192.73837354  .00000134  00000+0  40784-4 0  9996
2 43256  86.3956 280.0846 0002391  98.2818 261.8650 14.34217877433651
IRIDIUM 150             
1 43257U 18030J   26191.17174645 -.00000245  00000+0 -94436-4 0  9999
2 43257  86.3963 280.8566 0002215  95.9860 264.1588 14.34219143433455
IRIDIUM 143             
1 43258U 18030K   26192.75740109  .00000090  00000+0  24945-4 0  9993
2 43258  86.3961 280.2872 0002304  96.1065 264.0394 14.34217364433612
IRIDIUM 161             
1 43478U 18047C   26192.15744448  .00000172  00000+0  45078-4 0  9990
2 43478  86.4467  78.4474 0002306  78.8180 281.3280 14.43284936428596
IRIDIUM 152             
1 43479U 18047D   26192.73012350  .00000138  00000+0  42316-4 0  9999
2 43479  86.3940  78.0692 0002143  82.5322 277.6118 14.34219297426009
IRIDIUM 147             
1 43480U 18047E   26192.73645991  .00000145  00000+0  44538-4 0  9990
2 43480  86.3941  78.0721 0002274  88.2072 271.9384 14.34217152426005
IRIDIUM 110             
1 43481U 18047F   26192.74280477  .00000131  00000+0  39654-4 0  9994
2 43481  86.3945  78.1621 0002184  76.5323 283.6116 14.34217614425992
IRIDIUM 162             
1 43482U 18047G   26191.11118814  .00000189  00000+0  50126-4 0  9990
2 43482  86.4467  78.7759 0002187  84.2783 275.8667 14.43283456428433
IRIDIUM 160             
1 43569U 18061A   26192.68863700  .00000107  00000+0  31200-4 0  9998
2 43569  86.3942  46.5492 0002400  82.4772 277.6696 14.34217808416885
IRIDIUM 166             
1 43570U 18061B   26192.50470310  .00000031  00000+0  39317-5 0  9996
2 43570  86.3940  46.5761 0002260  89.6407 270.5047 14.34217869416881
IRIDIUM 158             
1 43571U 18061C   26192.68229711  .00000041  00000+0  76329-5 0  9998
2 43571  86.3940  46.5116 0002067  86.2122 273.9310 14.34217211416878
IRIDIUM 165             
1 43572U 18061D   26192.63789828  .00000146  00000+0  44895-4 0  9992
2 43572  86.3941  46.5772 0002258  90.4212 269.7243 14.34217370416893
IRIDIUM 155             
1 43573U 18061E   26192.66961122  .00000022  00000+0  97098-6 0  9993
2 43573  86.3934  46.4314 0001943  87.8825 272.2593 14.34216791416867
